STARLETTE               
1 07646U 75010A   25015.40220680 -.00000144  00000+0 -15477-6 0  9991
2 07646  49.8253 348.3736 0205664 152.5563 208.6370 13.82338799522918
LAGEOS 1                
1 08820U 76039A   25015.22024161  .00000001  00000+0  00000+0 0  9993
2 08820 109.8548   1.9113 0044142  52.7210 289.8623  6.38664912880056
AJISAI (EGS)            
1 16908U 86061A   25015.55254319 -.00000067  00000+0  21069-3 0  9996
2 16908  50.0106 299.1059 0011262 303.5428 108.6270 12.44509901415931
COSMOS 1989 (ETALON 1)  
1 19751U 89001C   25015.26066198 -.00000011  00000+0  00000+0 0  9993
2 19751  64.6544  89.9489 0023695 216.5279 112.5755  2.13156099280325
COSMOS 2024 (ETALON 2)  
1 20026U 89039C   25015.20748120 -.00000076  00000+0  00000+0 0  9998
2 20026  65.2363 328.3243 0019865 216.3347 140.4477  2.13204407277452
LAGEOS 2                
1 22195U 92070B   25015.29677858 -.00000009  00000+0  00000+0 0  9990
2 22195  52.6397 233.9564 0137128 320.5870 164.4734  6.47294136761894
STELLA                  
1 22824U 93061B   25015.62835748 -.00000014  00000+0  12839-4 0  9995
2 22824  98.8491  70.8869 0005503 308.0121 172.6089 14.27446881630934
LARETS                  
1 27944U 03042F   25015.59078050  .00000155  00000+0  39340-4 0  9995
2 27944  98.3421 164.0634 0011682 207.0694 152.9899 14.63684492137646
LARES                   
1 38077U 12006A   25015.54570051 -.00000039  00000+0 -42851-5 0  9992
2 38077  69.4900  96.4288 0008870 187.0120 173.0783 12.54931761592121
LARES-2                 
1 53105U 22080A   25007.58293761  .00000004  00000+0  00000+0 0  9993
2 53105  70.1346 125.5991 0004843  91.0969 269.0120  6.38965102 58083
